ORBCOMM FM37            
1 33064U 08031E   24183.91582580  .00002301  00000+0  35420-3 0  9996
2 33064  48.4383 205.2624 0006616 314.3084 112.7622 14.76737468862225
ORBCOMM FM40            
1 33065U 08031F   24184.19893889  .00003004  00000+0  43907-3 0  9995
2 33065  48.4403 192.7728 0007866 325.2582  85.7733 14.78132313862756
VESSELSAT 1             
1 37840U 11058C   24183.96856826  .00000428  00000+0  89421-4 0  9996
2 37840  19.9631  52.7821 0013616 294.6745  65.2241 14.11170451657005
ORBCOMM FM109           
1 40086U 14040A   24183.90859193  .00000987  00000+0  25577-3 0  9991
2 40086  47.0026 229.0102 0001395 185.2260 174.8610 14.56780222529962
ORBCOMM FM107           
1 40087U 14040B   24183.53095375  .00001102  00000+0  28096-3 0  9994
2 40087  47.0043 231.7598 0000312 152.4501 207.6401 14.56791524529985
ORBCOMM FM106           
1 40088U 14040C   24184.17397641  .00001747  00000+0  33871-3 0  9999
2 40088  47.0609  77.9571 0018173 242.3026 117.6020 14.67243832532246
ORBCOMM FM111           
1 40089U 14040D   24183.87806852  .00003758  00000+0  48833-3 0  9993
2 40089  47.0049 334.1647 0033400 317.2251  42.6046 14.82146127538189
ORBCOMM FM104           
1 40090U 14040E   24183.89919946  .00001101  00000+0  29000-3 0  9991
2 40090  47.0051 259.5308 0016223  42.3439 317.8694 14.55267488529579
